[{"OBJECT_NAME":"STARLINK-37068","OBJECT_ID":"2026-042S","EPOCH":"2026-04-03T05:41:55.552992","MEAN_MOTION":15.752285,"ECCENTRICITY":0.00019994,"INCLINATION":53.1594,"RA_OF_ASC_NODE":71.8892,"ARG_OF_PERICENTER":45.0719,"MEAN_ANOMALY":315.0463,"EPHEMERIS_TYPE":0,"CLASSIFICATION_TYPE":"U","NORAD_CAT_ID":68085,"ELEMENT_SET_NO":999,"REV_AT_EPOCH":596,"BSTAR":0.00088647138,"MEAN_MOTION_DOT":0.00137415,"MEAN_MOTION_DDOT":0},{"OBJECT_NAME":"STARLINK-37067","OBJECT_ID":"2026-042T","EPOCH":"2026-04-03T06:00:00.999648","MEAN_MOTION":15.75189935,"ECCENTRICITY":0.00010468,"INCLINATION":53.1595,"RA_OF_ASC_NODE":71.6176,"ARG_OF_PERICENTER":74.1796,"MEAN_ANOMALY":100.2599,"EPHEMERIS_TYPE":0,"CLASSIFICATION_TYPE":"U","NORAD_CAT_ID":68086,"ELEMENT_SET_NO":999,"REV_AT_EPOCH":600,"BSTAR":9.278004e-6,"MEAN_MOTION_DOT":7.81e-6,"MEAN_MOTION_DDOT":0},{"OBJECT_NAME":"STARLINK-37062","OBJECT_ID":"2026-042U","EPOCH":"2026-04-03T06:00:00.999648","MEAN_MOTION":15.75125986,"ECCENTRICITY":8.669e-5,"INCLINATION":53.1592,"RA_OF_ASC_NODE":71.6668,"ARG_OF_PERICENTER":79.9426,"MEAN_ANOMALY":70.6407,"EPHEMERIS_TYPE":0,"CLASSIFICATION_TYPE":"U","NORAD_CAT_ID":68087,"ELEMENT_SET_NO":999,"REV_AT_EPOCH":600,"BSTAR":0.0006264776,"MEAN_MOTION_DOT":0.00096011,"MEAN_MOTION_DDOT":0},{"OBJECT_NAME":"STARLINK-37059","OBJECT_ID":"2026-042V","EPOCH":"2026-04-03T05:34:54.367680","MEAN_MOTION":15.75264701,"ECCENTRICITY":0.00013999,"INCLINATION":53.1596,"RA_OF_ASC_NODE":71.8572,"ARG_OF_PERICENTER":48.888,"MEAN_ANOMALY":311.2261,"EPHEMERIS_TYPE":0,"CLASSIFICATION_TYPE":"U","NORAD_CAT_ID":68088,"ELEMENT_SET_NO":999,"REV_AT_EPOCH":596,"BSTAR":0.0021940159,"MEAN_MOTION_DOT":0.0035038,"MEAN_MOTION_DDOT":0},{"OBJECT_NAME":"STARLINK-37004","OBJECT_ID":"2026-042W","EPOCH":"2026-04-03T04:10:04.541952","MEAN_MOTION":15.75300688,"ECCENTRICITY":0.0001191,"INCLINATION":53.1593,"RA_OF_ASC_NODE":72.2021,"ARG_OF_PERICENTER":106.3313,"MEAN_ANOMALY":253.7839,"EPHEMERIS_TYPE":0,"CLASSIFICATION_TYPE":"U","NORAD_CAT_ID":68089,"ELEMENT_SET_NO":999,"REV_AT_EPOCH":595,"BSTAR":0.0011607961,"MEAN_MOTION_DOT":0.00181656,"MEAN_MOTION_DDOT":0},{"OBJECT_NAME":"STARLINK-36320","OBJECT_ID":"2026-042X","EPOCH":"2026-04-03T01:40:25.387392","MEAN_MOTION":15.71711098,"ECCENTRICITY":0.00156278,"INCLINATION":53.159,"RA_OF_ASC_NODE":72.9859,"ARG_OF_PERICENTER":12.16,"MEAN_ANOMALY":347.9793,"EPHEMERIS_TYPE":0,"CLASSIFICATION_TYPE":"U","NORAD_CAT_ID":68090,"ELEMENT_SET_NO":999,"REV_AT_EPOCH":593,"BSTAR":-0.020068792,"MEAN_MOTION_DOT":-0.02315856,"MEAN_MOTION_DDOT":0},{"OBJECT_NAME":"STARLINK-36324","OBJECT_ID":"2026-042Y","EPOCH":"2026-04-03T04:49:45.796800","MEAN_MOTION":15.75291385,"ECCENTRICITY":0.00013442,"INCLINATION":53.1596,"RA_OF_ASC_NODE":72.3876,"ARG_OF_PERICENTER":117.0631,"MEAN_ANOMALY":243.0527,"EPHEMERIS_TYPE":0,"CLASSIFICATION_TYPE":"U","NORAD_CAT_ID":68091,"ELEMENT_SET_NO":999,"REV_AT_EPOCH":595,"BSTAR":0.0010712346,"MEAN_MOTION_DOT":0.00167235,"MEAN_MOTION_DDOT":0},{"OBJECT_NAME":"STARLINK-36896","OBJECT_ID":"2026-042Z","EPOCH":"2026-04-03T04:36:13.259232","MEAN_MOTION":15.75245068,"ECCENTRICITY":0.00015048,"INCLINATION":53.159,"RA_OF_ASC_NODE":72.3239,"ARG_OF_PERICENTER":138.7053,"MEAN_ANOMALY":221.4082,"EPHEMERIS_TYPE":0,"CLASSIFICATION_TYPE":"U","NORAD_CAT_ID":68092,"ELEMENT_SET_NO":999,"REV_AT_EPOCH":594,"BSTAR":0.0024345066,"MEAN_MOTION_DOT":0.00390392,"MEAN_MOTION_DDOT":0},{"OBJECT_NAME":"STARLINK-36251","OBJECT_ID":"2026-042AA","EPOCH":"2026-04-03T06:00:00.999648","MEAN_MOTION":15.7516331,"ECCENTRICITY":0.00012415,"INCLINATION":53.1596,"RA_OF_ASC_NODE":71.5646,"ARG_OF_PERICENTER":81.4299,"MEAN_ANOMALY":118.7691,"EPHEMERIS_TYPE":0,"CLASSIFICATION_TYPE":"U","NORAD_CAT_ID":68093,"ELEMENT_SET_NO":999,"REV_AT_EPOCH":599,"BSTAR":0.00041120679,"MEAN_MOTION_DOT":0.00062653,"MEAN_MOTION_DDOT":0},{"OBJECT_NAME":"STARLINK-36787","OBJECT_ID":"2026-042AB","EPOCH":"2026-04-03T06:00:00.999648","MEAN_MOTION":15.75109766,"ECCENTRICITY":0.00010602,"INCLINATION":53.1587,"RA_OF_ASC_NODE":72.0924,"ARG_OF_PERICENTER":95.2642,"MEAN_ANOMALY":207.4302,"EPHEMERIS_TYPE":0,"CLASSIFICATION_TYPE":"U","NORAD_CAT_ID":68094,"ELEMENT_SET_NO":999,"REV_AT_EPOCH":599,"BSTAR":0.00080147678,"MEAN_MOTION_DOT":0.00123323,"MEAN_MOTION_DDOT":0},{"OBJECT_NAME":"STARLINK-36790","OBJECT_ID":"2026-042AC","EPOCH":"2026-04-03T05:48:27.458208","MEAN_MOTION":15.75214257,"ECCENTRICITY":0.00012945,"INCLINATION":53.1582,"RA_OF_ASC_NODE":71.9213,"ARG_OF_PERICENTER":72.2421,"MEAN_ANOMALY":287.874,"EPHEMERIS_TYPE":0,"CLASSIFICATION_TYPE":"U","NORAD_CAT_ID":68095,"ELEMENT_SET_NO":999,"REV_AT_EPOCH":595,"BSTAR":0.00072439649,"MEAN_MOTION_DOT":0.00111758,"MEAN_MOTION_DDOT":0},{"OBJECT_NAME":"STARLINK-36328","OBJECT_ID":"2026-042AD","EPOCH":"2026-04-03T03:57:01.337184","MEAN_MOTION":15.76140604,"ECCENTRICITY":0.00030391,"INCLINATION":53.1601,"RA_OF_ASC_NODE":72.1419,"ARG_OF_PERICENTER":252.6758,"MEAN_ANOMALY":107.3931,"EPHEMERIS_TYPE":0,"CLASSIFICATION_TYPE":"U","NORAD_CAT_ID":68096,"ELEMENT_SET_NO":999,"REV_AT_EPOCH":594,"BSTAR":0.0022766027,"MEAN_MOTION_DOT":0.003791,"MEAN_MOTION_DDOT":0},{"OBJECT_NAME":"STARLINK-36853","OBJECT_ID":"2026-042AE","EPOCH":"2026-04-03T05:22:18.182784","MEAN_MOTION":15.75259664,"ECCENTRICITY":0.00010655,"INCLINATION":53.1593,"RA_OF_ASC_NODE":71.7963,"ARG_OF_PERICENTER":55.2489,"MEAN_ANOMALY":304.8631,"EPHEMERIS_TYPE":0,"CLASSIFICATION_TYPE":"U","NORAD_CAT_ID":68097,"ELEMENT_SET_NO":999,"REV_AT_EPOCH":595,"BSTAR":0.0022962517,"MEAN_MOTION_DOT":0.00367413,"MEAN_MOTION_DDOT":0},{"OBJECT_NAME":"GLOBAL-34","OBJECT_ID":"2026-043A","EPOCH":"2026-04-02T20:40:52.483584","MEAN_MOTION":15.32028422,"ECCENTRICITY":0.00035891,"INCLINATION":42.0208,"RA_OF_ASC_NODE":295.9341,"ARG_OF_PERICENTER":104.2885,"MEAN_ANOMALY":255.8351,"EPHEMERIS_TYPE":0,"CLASSIFICATION_TYPE":"U","NORAD_CAT_ID":68098,"ELEMENT_SET_NO":999,"REV_AT_EPOCH":427,"BSTAR":0.00065475785,"MEAN_MOTION_DOT":0.00020494,"MEAN_MOTION_DDOT":0},{"OBJECT_NAME":"STARLINK-37022","OBJECT_ID":"2026-044A","EPOCH":"2026-04-03T06:00:00.999648","MEAN_MOTION":15.50481817,"ECCENTRICITY":0.00015714,"INCLINATION":97.2854,"RA_OF_ASC_NODE":54.4823,"ARG_OF_PERICENTER":95.7144,"MEAN_ANOMALY":86.3305,"EPHEMERIS_TYPE":0,"CLASSIFICATION_TYPE":"U","NORAD_CAT_ID":68101,"ELEMENT_SET_NO":999,"REV_AT_EPOCH":535,"BSTAR":-0.030342043,"MEAN_MOTION_DOT":-0.01559157,"MEAN_MOTION_DDOT":0},{"OBJECT_NAME":"STARLINK-37046","OBJECT_ID":"2026-044B","EPOCH":"2026-04-03T06:00:00.999648","MEAN_MOTION":15.511394,"ECCENTRICITY":0.00019389,"INCLINATION":97.2854,"RA_OF_ASC_NODE":54.4918,"ARG_OF_PERICENTER":102.0186,"MEAN_ANOMALY":97.29,"EPHEMERIS_TYPE":0,"CLASSIFICATION_TYPE":"U","NORAD_CAT_ID":68102,"ELEMENT_SET_NO":999,"REV_AT_EPOCH":535,"BSTAR":-0.03544864,"MEAN_MOTION_DOT":-0.01830651,"MEAN_MOTION_DDOT":0}]
