STARLINK-37068          
1 68085U 26042S   26093.23744853  .00137415  00000+0  88647-3 0  9993
2 68085  53.1594  71.8892 0001999  45.0719 315.0463 15.75228500  5962
STARLINK-37067          
1 68086U 26042T   26093.25001157  .00000781  00000+0  92780-5 0  9999
2 68086  53.1595  71.6176 0001046  74.1796 100.2599 15.75189935  6006
STARLINK-37062          
1 68087U 26042U   26093.25001157  .00096011  00000+0  62648-3 0  9999
2 68087  53.1592  71.6668 0000866  79.9426  70.6407 15.75125986  6006
STARLINK-37059          
1 68088U 26042V   26093.23257370  .00350380  00000+0  21940-2 0  9999
2 68088  53.1596  71.8572 0001399  48.8880 311.2261 15.75264701  5963
STARLINK-37004          
1 68089U 26042W   26093.17366368  .00181656  00000+0  11608-2 0  9999
2 68089  53.1593  72.2021 0001191 106.3313 253.7839 15.75300688  5951
STARLINK-36320          
1 68090U 26042X   26093.06973828 -.02315856  00000+0 -20069-1 0  9999
2 68090  53.1590  72.9859 0015627  12.1600 347.9793 15.71711098  5938
STARLINK-36324          
1 68091U 26042Y   26093.20122450  .00167235  00000+0  10712-2 0  9990
2 68091  53.1596  72.3876 0001344 117.0631 243.0527 15.75291385  5957
STARLINK-36896          
1 68092U 26042Z   26093.19182013  .00390392  00000+0  24345-2 0  9999
2 68092  53.1590  72.3239 0001504 138.7053 221.4082 15.75245068  5943
STARLINK-36251          
1 68093U 26042AA  26093.25001157  .00062653  00000+0  41121-3 0  9994
2 68093  53.1596  71.5646 0001241  81.4299 118.7691 15.75163310  5995
STARLINK-36787          
1 68094U 26042AB  26093.25001157  .00123323  00000+0  80148-3 0  9999
2 68094  53.1587  72.0924 0001060  95.2642 207.4302 15.75109766  5995
STARLINK-36790          
1 68095U 26042AC  26093.24198447  .00111758  00000+0  72440-3 0  9993
2 68095  53.1582  71.9213 0001294  72.2421 287.8740 15.75214257  5955
STARLINK-36328          
1 68096U 26042AD  26093.16459881  .00379100  00000+0  22766-2 0  9999
2 68096  53.1601  72.1419 0003039 252.6758 107.3931 15.76140604  5947
STARLINK-36853          
1 68097U 26042AE  26093.22382156  .00367413  00000+0  22963-2 0  9990
2 68097  53.1593  71.7963 0001065  55.2489 304.8631 15.75259664  5950
GLOBAL-34               
1 68098U 26043A   26092.86171856  .00020494  00000+0  65476-3 0  9996
2 68098  42.0208 295.9341 0003589 104.2885 255.8351 15.32028422  4276
STARLINK-37022          
1 68101U 26044A   26093.25001157 -.01559157  00000+0 -30342-1 0  9990
2 68101  97.2854  54.4823 0001571  95.7144  86.3305 15.50481817  5351
STARLINK-37046          
1 68102U 26044B   26093.25001157 -.01830651  00000+0 -35449-1 0  9995
2 68102  97.2854  54.4918 0001938 102.0186  97.2900 15.51139400  5353
